{
"type": "FeatureCollection",
"name": "GONDANGAN",
"crs": { "type": "name", "properties": { "name": "urn:ogc:def:crs:EPSG::32749" } },
"features": [
{ "type": "Feature", "properties": { "id": 1 }, "geometry": { "type": "MultiPolygon", "coordinates": [ [ [ [ 366379.891254637390375, 9231413.467483948916197 ], [ 366111.311882139532827, 9231442.934770122170448 ], [ 366104.822859602805693, 9231407.358496438711882 ], [ 366104.020523727987893, 9231425.09653826802969 ], [ 366089.491376541904174, 9231437.801479918882251 ], [ 366056.703621121472679, 9231434.323474956676364 ], [ 366037.525020725966897, 9231423.752081660553813 ], [ 366032.301389594562352, 9231423.357974272221327 ], [ 366026.176266445079818, 9231426.53786176815629 ], [ 366014.181127869407646, 9231432.276460289955139 ], [ 365994.482176778139547, 9231455.524820892140269 ], [ 365975.628539842145983, 9231470.540053114295006 ], [ 365949.238381985109299, 9231489.629318052902818 ], [ 365927.35367541416781, 9231495.178438736125827 ], [ 365905.649122884497046, 9231500.394640102982521 ], [ 365902.239736108575016, 9231500.696006441488862 ], [ 365887.35395194159355, 9231505.309467986226082 ], [ 365865.632684626674745, 9231517.037901867181063 ], [ 365844.841818550485186, 9231528.458606101572514 ], [ 365828.095194350462407, 9231533.687497559934855 ], [ 365825.303161662770435, 9231534.920770587399602 ], [ 365809.819893518113531, 9231530.849624345079064 ], [ 365803.629610666306689, 9231528.042757485061884 ], [ 365799.923080897657201, 9231523.381608808413148 ], [ 365788.825275974581018, 9231514.488225724548101 ], [ 365788.565958324121311, 9231507.554484749212861 ], [ 365787.764518700132612, 9231495.904861036688089 ], [ 365777.293382383417338, 9231472.860173813998699 ], [ 365762.363567064167, 9231459.510343316942453 ], [ 365742.599295285181142, 9231462.401796326041222 ], [ 365723.656153644667938, 9231469.928429026156664 ], [ 365721.287044712866191, 9231471.342709137126803 ], [ 365718.613306183193345, 9231499.269662415608764 ], [ 365717.377081857062876, 9231520.098488627001643 ], [ 365711.914825259009376, 9231548.246490905061364 ], [ 365706.248992570093833, 9231576.591510782018304 ], [ 365649.379280512977857, 9231584.442567352205515 ], [ 365608.247408488066867, 9231590.766066795215011 ], [ 365567.855862015101593, 9231594.703457618132234 ], [ 365567.855862015101593, 9231594.703457618132234 ], [ 365552.784867490059696, 9231602.37973266094923 ], [ 365552.784867490059696, 9231602.37973266094923 ], [ 365579.861627743579447, 9231636.983208077028394 ], [ 365597.970386955013964, 9231661.460624396800995 ], [ 365631.343756341608241, 9231706.752241706475616 ], [ 365636.758669273229316, 9231716.77273215726018 ], [ 365639.976621877518483, 9231723.402999861165881 ], [ 365642.59279352077283, 9231735.329322976991534 ], [ 365643.849715784657747, 9231747.340992150828242 ], [ 365645.149253922398202, 9231752.04787003621459 ], [ 365653.94341034675017, 9231798.560064028948545 ], [ 365654.407936017552856, 9231816.440190562978387 ], [ 365662.46347170509398, 9231859.881142221391201 ], [ 365672.882385548262391, 9231976.887189948931336 ], [ 365674.365189574309625, 9231995.791580809280276 ], [ 365675.987285942421295, 9232144.639093410223722 ], [ 365790.466600714193191, 9232121.899895066395402 ], [ 365837.214335885364562, 9232098.986873673275113 ], [ 365845.848999319481663, 9232065.446813503280282 ], [ 365862.408424166147597, 9232018.765422975644469 ], [ 366289.501351536484435, 9231728.970475103706121 ], [ 366344.560682047565933, 9231844.369474459439516 ], [ 366431.621641028323211, 9231717.817785823717713 ], [ 366428.886818574159406, 9231707.769807694479823 ], [ 366424.688592324615456, 9231698.005980594083667 ], [ 366420.833212759811431, 9231681.199118042364717 ], [ 366413.151117850327864, 9231662.539493912830949 ], [ 366408.342878384049982, 9231656.868714949116111 ], [ 366408.436017465195619, 9231652.957931891083717 ], [ 366409.110355307639111, 9231649.38148614577949 ], [ 366406.271667197928764, 9231643.726561555638909 ], [ 366407.452215881436132, 9231632.209559736773372 ], [ 366408.433063919306733, 9231623.76405243575573 ], [ 366408.452190095267724, 9231616.276090091094375 ], [ 366406.945312841038685, 9231605.328224640339613 ], [ 366379.891254637390375, 9231413.467483948916197 ] ] ] ] } }
]
}
