{
"type": "FeatureCollection",
"name": "PESAWAHAN",
"crs": { "type": "name", "properties": { "name": "urn:ogc:def:crs:EPSG::32749" } },
"features": [
{ "type": "Feature", "properties": { "id": 1 }, "geometry": { "type": "MultiPolygon", "coordinates": [ [ [ [ 367039.084812988410704, 9231375.070547683164477 ], [ 366379.8912543336628, 9231413.467482363805175 ], [ 366379.891261564567685, 9231413.467533960938454 ], [ 366379.891266843886115, 9231413.467573650181293 ], [ 366379.891266843886115, 9231413.467573650181293 ], [ 366379.891283810720779, 9231413.467693854123354 ], [ 366379.891301064228173, 9231413.467813491821289 ], [ 366408.201754612964578, 9231615.696432096883655 ], [ 366408.20194512908347, 9231615.70967954210937 ], [ 366408.2966266941512, 9231623.319256797432899 ], [ 366407.525305653340183, 9231634.706819955259562 ], [ 366406.637236284906976, 9231643.370500868186355 ], [ 366407.898457658477128, 9231647.319450037553906 ], [ 366408.88418658124283, 9231649.305066132918 ], [ 366408.399893451831304, 9231652.714758390560746 ], [ 366408.310855092306156, 9231656.461050750687718 ], [ 366413.000999095325824, 9231662.364656677469611 ], [ 366415.426158625283279, 9231668.200714724138379 ], [ 366415.426158625283279, 9231668.200714724138379 ], [ 366420.589880328858271, 9231680.562241926789284 ], [ 366424.54734383826144, 9231697.869322473183274 ], [ 366428.880112485843711, 9231707.566378429532051 ], [ 366431.468096386524849, 9231718.303820038214326 ], [ 366344.463850547210313, 9231842.976198984310031 ], [ 366343.456965919001959, 9231843.97870521992445 ], [ 366343.451096889562905, 9231846.276012657210231 ], [ 366329.335696834838018, 9232035.848016297444701 ], [ 366331.12189725402277, 9232040.584071161225438 ], [ 366331.12189725402277, 9232040.584071161225438 ], [ 366336.383265263866633, 9232045.28846868686378 ], [ 366342.242543061554898, 9232045.303434159606695 ], [ 366352.807213084364776, 9232038.293978791683912 ], [ 366518.281087546842173, 9231943.724468594416976 ], [ 366524.729268308146857, 9231942.568179020658135 ], [ 366528.219398302957416, 9231952.545362956821918 ], [ 366539.232354297302663, 9231999.48300912976265 ], [ 366570.808815799071454, 9232103.701051654294133 ], [ 366571.501820600242354, 9232104.630677388980985 ], [ 366572.658405694179237, 9232105.561485003679991 ], [ 366576.60120340960566, 9232104.643678093329072 ], [ 366785.310646831407212, 9232103.209560956805944 ], [ 366786.954361577052623, 9232102.744100168347359 ], [ 366789.069758326048031, 9232101.340550480410457 ], [ 366790.011329259374179, 9232100.168835297226906 ], [ 366790.956486351613421, 9232097.588195050135255 ], [ 366794.500675368995871, 9232087.969499299302697 ], [ 366894.49436834466178, 9231889.750088410452008 ], [ 366896.46673184982501, 9231887.622642209753394 ], [ 366898.764831729000434, 9231886.316203081980348 ], [ 366901.228512191504706, 9231884.35404234752059 ], [ 367272.314856220269576, 9231629.01880194246769 ], [ 367272.313338480307721, 9231629.017699690535665 ], [ 367201.154387086164206, 9231579.311441721394658 ], [ 367165.247855445544701, 9231512.879488265141845 ], [ 367164.299303811625578, 9231506.238675635308027 ], [ 367161.443065351690166, 9231486.200636297464371 ], [ 367161.491220421274193, 9231462.812862349674106 ], [ 367162.124196500575636, 9231455.318738408386707 ], [ 367162.016705824062228, 9231449.297303596511483 ], [ 367160.681659652851522, 9231443.149869361892343 ], [ 367157.747264108387753, 9231438.227180372923613 ], [ 367155.542097214376554, 9231436.255484327673912 ], [ 367153.949927725538146, 9231434.653988124802709 ], [ 367149.162804891122505, 9231434.027421331033111 ], [ 367141.551898700417951, 9231433.270798437297344 ], [ 367134.674590761424042, 9231433.744847116991878 ], [ 367118.204336935828906, 9231438.374075442552567 ], [ 367099.949061798746698, 9231441.41411617025733 ], [ 367087.097449617809616, 9231441.895856499671936 ], [ 367077.7269148772466, 9231441.0022834520787 ], [ 367076.684494119952433, 9231440.999633545055985 ], [ 367075.855331024271436, 9231439.119730737060308 ], [ 367075.445257849351037, 9231436.406317725777626 ], [ 367077.777832222171128, 9231420.972599605098367 ], [ 367093.241716175805777, 9231406.824124710634351 ], [ 367094.929741127765737, 9231398.899948047474027 ], [ 367092.659753059153445, 9231389.713847214356065 ], [ 367092.659753059153445, 9231389.713847214356065 ], [ 367082.451996006944682, 9231386.558240311220288 ], [ 367073.055366751155816, 9231392.376380858942866 ], [ 367065.942510867374949, 9231401.95591663941741 ], [ 367064.90009084821213, 9231401.953266361728311 ], [ 367054.925749787595123, 9231388.991984032094479 ], [ 367052.512680179206654, 9231384.602101661264896 ], [ 367039.084812988410704, 9231375.070547683164477 ] ] ] ] } }
]
}
