{
"type": "FeatureCollection",
"name": "TULIS BARAT",
"crs": { "type": "name", "properties": { "name": "urn:ogc:def:crs:EPSG::32749" } },
"features": [
{ "type": "Feature", "properties": { "id": 2 }, "geometry": { "type": "MultiPolygon", "coordinates": [ [ [ [ 365064.709378991741687, 9232298.127119621261954 ], [ 365144.901903746940661, 9232172.731380984187126 ], [ 365176.328538807691075, 9232153.54379722289741 ], [ 365393.177321898401715, 9232129.837872862815857 ], [ 365449.516873816028237, 9232128.555445972830057 ], [ 365456.444368502125144, 9232207.788314191624522 ], [ 365529.194762061466463, 9232202.97972310334444 ], [ 365519.3285284062149, 9232157.280837276950479 ], [ 365675.534942342841532, 9232144.12264203093946 ], [ 365673.804093856480904, 9231984.974542960524559 ], [ 365662.007373232627288, 9231857.914780542254448 ], [ 365640.818171339924447, 9231728.321727288886905 ], [ 364859.976491148700006, 9231841.888831075280905 ], [ 364862.518174263881519, 9231862.155342852696776 ], [ 364871.28288658731617, 9231936.515652684494853 ], [ 364864.127217015135102, 9231962.012377357110381 ], [ 364824.862755791284144, 9232101.457263311371207 ], [ 364816.035402350360528, 9232126.282155729830265 ], [ 364800.518615728709847, 9232196.400269066914916 ], [ 364806.319213955895975, 9232212.493171006441116 ], [ 364825.279704649467021, 9232222.773542372509837 ], [ 364867.604942919686437, 9232234.575858477503061 ], [ 365059.587615211028606, 9232265.034501483663917 ], [ 365052.200175837147981, 9232297.902081575244665 ], [ 365064.709378991741687, 9232298.127119621261954 ] ] ] ] } }
]
}
