{
"type": "FeatureCollection",
"name": "TULIS SARI",
"crs": { "type": "name", "properties": { "name": "urn:ogc:def:crs:EPSG::32749" } },
"features": [
{ "type": "Feature", "properties": { "id": 1 }, "geometry": { "type": "MultiPolygon", "coordinates": [ [ [ [ 365641.033064015849959, 9231728.245896449312568 ], [ 365640.550308239995502, 9231725.820755345746875 ], [ 365640.043237158795819, 9231723.399754200130701 ], [ 365631.575472733471543, 9231707.576006198301911 ], [ 365553.058447861345485, 9231602.350410513579845 ], [ 365568.296304819406942, 9231594.503030881285667 ], [ 365602.958089195890352, 9231591.238614225760102 ], [ 365639.593291318858974, 9231585.991872597485781 ], [ 365706.394444591074716, 9231576.983908925205469 ], [ 365717.435466015944257, 9231520.065244194120169 ], [ 365717.785594128654338, 9231513.970505071803927 ], [ 365721.330250509432517, 9231471.670615816488862 ], [ 365705.06832560460316, 9231483.459975861012936 ], [ 365672.832860725640785, 9231495.202480610460043 ], [ 365660.20717101340415, 9231494.590375373139977 ], [ 365654.997689539566636, 9231493.185780137777328 ], [ 365641.869599960336927, 9231425.965093720704317 ], [ 365642.054236311523709, 9231358.923175239935517 ], [ 365635.303057690965943, 9231340.329456033185124 ], [ 364901.274314366455656, 9231452.760754134505987 ], [ 364902.870286200777628, 9231510.319672677665949 ], [ 364909.047409542836249, 9231552.076740900054574 ], [ 364931.562205220281612, 9231573.005448509007692 ], [ 364917.422393000510056, 9231609.372552681714296 ], [ 364883.58125710207969, 9231663.964505210518837 ], [ 364866.42857638571877, 9231736.596648504957557 ], [ 364851.145207506779116, 9231766.26389511488378 ], [ 364851.143053189036436, 9231767.097762692719698 ], [ 364859.960022521787323, 9231841.791463319212198 ], [ 364859.971396656299476, 9231841.889844136312604 ], [ 365641.033064015849959, 9231728.245896449312568 ], [ 365641.033064015849959, 9231728.245896449312568 ] ] ] ] } }
]
}
